{
  "type": "FeatureCollection",
  "features": [
    {
      "type": "Feature",
      "properties": {
        "norad_id": 30621,
        "name": "FENGYUN 1C DEB",
        "group": "fengyun-1c-debris",
        "lat": 81.22460238751098,
        "lon": -158.4374562571669,
        "alt_km": 970.7947819580659,
        "timestamp": "2025-12-21T22:41:41.737557+00:00",
        "meta_object_name": "FENGYUN 1C DEB",
        "meta_object_id": "1999-025ANC",
        "meta_epoch": "2025-12-20T07:39:30.864672",
        "meta_mean_motion": 14.03870843,
        "meta_eccentricity": 0.01368657,
        "meta_inclination": 98.6978,
        "meta_ra_of_asc_node": 297.4188,
        "meta_arg_of_pericenter": 285.5041,
        "meta_mean_anomaly": 229.5931,
        "meta_ephemeris_type": 0,
        "meta_classification_type": "U",
        "meta_norad_cat_id": 30621,
        "meta_element_set_no": 999,
        "meta_rev_at_epoch": 95696,
        "meta_bstar": 0.001469285,
        "meta_mean_motion_dot": 2.476e-05,
        "meta_mean_motion_ddot": 0,
        "tle_line1": "1 30621U 99025ANC 25354.31910723  .00002476  00000+0  14693-2 0  9995",
        "tle_line2": "2 30621  98.6978 297.4188 0136865 285.5041 229.5931 14.03870843956968"
      },
      "geometry": {
        "type": "Point",
        "coordinates": [
          -158.4374562571669,
          81.22460238751098
        ]
      }
    },
    {
      "type": "Feature",
      "properties": {
        "norad_id": 30622,
        "name": "FENGYUN 1C DEB",
        "group": "fengyun-1c-debris",
        "lat": 11.114676858705785,
        "lon": -167.89645237465496,
        "alt_km": 840.3955426158336,
        "timestamp": "2025-12-21T22:41:41.737567+00:00",
        "meta_object_name": "FENGYUN 1C DEB",
        "meta_object_id": "1999-025AND",
        "meta_epoch": "2025-12-20T21:18:30.354048",
        "meta_mean_motion": 14.31337635,
        "meta_eccentricity": 0.0072413,
        "meta_inclination": 101.0011,
        "meta_ra_of_asc_node": 8.5769,
        "meta_arg_of_pericenter": 352.4958,
        "meta_mean_anomaly": 128.3988,
        "meta_ephemeris_type": 0,
        "meta_classification_type": "U",
        "meta_norad_cat_id": 30622,
        "meta_element_set_no": 999,
        "meta_rev_at_epoch": 68914,
        "meta_bstar": 0.0021293,
        "meta_mean_motion_dot": 5.745e-05,
        "meta_mean_motion_ddot": 0,
        "tle_line1": "1 30622U 99025AND 25354.88785132  .00005745  00000+0  21293-2 0  9998",
        "tle_line2": "2 30622 101.0011   8.5769 0072413 352.4958 128.3988 14.31337635689140"
      },
      "geometry": {
        "type": "Point",
        "coordinates": [
          -167.89645237465496,
          11.114676858705785
        ]
      }
    },
    {
      "type": "Feature",
      "properties": {
        "norad_id": 30623,
        "name": "FENGYUN 1C DEB",
        "group": "fengyun-1c-debris",
        "lat": -54.49764462628003,
        "lon": -19.218781198810138,
        "alt_km": 1417.1722867008548,
        "timestamp": "2025-12-21T22:41:41.737578+00:00",
        "meta_object_name": "FENGYUN 1C DEB",
        "meta_object_id": "1999-025ANE",
        "meta_epoch": "2025-12-20T06:40:24.941280",
        "meta_mean_motion": 13.29344253,
        "meta_eccentricity": 0.04037728,
        "meta_inclination": 98.8229,
        "meta_ra_of_asc_node": 171.9263,
        "meta_arg_of_pericenter": 89.2012,
        "meta_mean_anomaly": 87.6457,
        "meta_ephemeris_type": 0,
        "meta_classification_type": "U",
        "meta_norad_cat_id": 30623,
        "meta_element_set_no": 999,
        "meta_rev_at_epoch": 91316,
        "meta_bstar": 0.00042981817,
        "meta_mean_motion_dot": 2.79e-06,
        "meta_mean_motion_ddot": 0,
        "tle_line1": "1 30623U 99025ANE 25354.27806645  .00000279  00000+0  42982-3 0  9991",
        "tle_line2": "2 30623  98.8229 171.9263 0403772  89.2012  87.6457 13.29344253913161"
      },
      "geometry": {
        "type": "Point",
        "coordinates": [
          -19.218781198810138,
          -54.49764462628003
        ]
      }
    },
    {
      "type": "Feature",
      "properties": {
        "norad_id": 30624,
        "name": "FENGYUN 1C DEB",
        "group": "fengyun-1c-debris",
        "lat": 42.86366971355482,
        "lon": 70.29154281492164,
        "alt_km": 696.6158535896957,
        "timestamp": "2025-12-21T22:41:41.737588+00:00",
        "meta_object_name": "FENGYUN 1C DEB",
        "meta_object_id": "1999-025ANF",
        "meta_epoch": "2025-12-21T04:26:09.447648",
        "meta_mean_motion": 14.62636214,
        "meta_eccentricity": 0.00232881,
        "meta_inclination": 98.8874,
        "meta_ra_of_asc_node": 77.8232,
        "meta_arg_of_pericenter": 244.6231,
        "meta_mean_anomaly": 115.2557,
        "meta_ephemeris_type": 0,
        "meta_classification_type": "U",
        "meta_norad_cat_id": 30624,
        "meta_element_set_no": 999,
        "meta_rev_at_epoch": 97619,
        "meta_bstar": 0.0029618402,
        "meta_mean_motion_dot": 0.00015094,
        "meta_mean_motion_ddot": 0,
        "tle_line1": "1 30624U 99025ANF 25355.18483157  .00015094  00000+0  29618-2 0  9993",
        "tle_line2": "2 30624  98.8874  77.8232 0023288 244.6231 115.2557 14.62636214976198"
      },
      "geometry": {
        "type": "Point",
        "coordinates": [
          70.29154281492164,
          42.86366971355482
        ]
      }
    },
    {
      "type": "Feature",
      "properties": {
        "norad_id": 30625,
        "name": "FENGYUN 1C DEB",
        "group": "fengyun-1c-debris",
        "lat": 27.026556496149166,
        "lon": -52.28075639373968,
        "alt_km": 764.5807969638936,
        "timestamp": "2025-12-21T22:41:41.737599+00:00",
        "meta_object_name": "FENGYUN 1C DEB",
        "meta_object_id": "1999-025ANG",
        "meta_epoch": "2025-12-20T13:15:18.497088",
        "meta_mean_motion": 14.41690743,
        "meta_eccentricity": 0.0048624,
        "meta_inclination": 98.926,
        "meta_ra_of_asc_node": 310.8621,
        "meta_arg_of_pericenter": 279.6327,
        "meta_mean_anomaly": 79.937,
        "meta_ephemeris_type": 0,
        "meta_classification_type": "U",
        "meta_norad_cat_id": 30625,
        "meta_element_set_no": 999,
        "meta_rev_at_epoch": 96805,
        "meta_bstar": 0.0024006,
        "meta_mean_motion_dot": 7.897e-05,
        "meta_mean_motion_ddot": 0,
        "tle_line1": "1 30625U 99025ANG 25354.55229742  .00007897  00000+0  24006-2 0  9990",
        "tle_line2": "2 30625  98.9260 310.8621 0048624 279.6327  79.9370 14.41690743968055"
      },
      "geometry": {
        "type": "Point",
        "coordinates": [
          -52.28075639373968,
          27.026556496149166
        ]
      }
    },
    {
      "type": "Feature",
      "properties": {
        "norad_id": 30628,
        "name": "FENGYUN 1C DEB",
        "group": "fengyun-1c-debris",
        "lat": -64.35746600181537,
        "lon": 72.93222436925508,
        "alt_km": 657.0439015235324,
        "timestamp": "2025-12-21T22:41:41.737610+00:00",
        "meta_object_name": "FENGYUN 1C DEB",
        "meta_object_id": "1999-025ANK",
        "meta_epoch": "2025-12-20T16:09:33.344640",
        "meta_mean_motion": 14.69259878,
        "meta_eccentricity": 0.00218889,
        "meta_inclination": 99.3411,
        "meta_ra_of_asc_node": 271.5327,
        "meta_arg_of_pericenter": 220.8294,
        "meta_mean_anomaly": 139.1268,
        "meta_ephemeris_type": 0,
        "meta_classification_type": "U",
        "meta_norad_cat_id": 30628,
        "meta_element_set_no": 999,
        "meta_rev_at_epoch": 98587,
        "meta_bstar": 0.0014655611,
        "meta_mean_motion_dot": 8.62e-05,
        "meta_mean_motion_ddot": 0,
        "tle_line1": "1 30628U 99025ANK 25354.67330260  .00008620  00000+0  14656-2 0  9999",
        "tle_line2": "2 30628  99.3411 271.5327 0021888 220.8294 139.1268 14.69259878985875"
      },
      "geometry": {
        "type": "Point",
        "coordinates": [
          72.93222436925508,
          -64.35746600181537
        ]
      }
    },
    {
      "type": "Feature",
      "properties": {
        "norad_id": 30629,
        "name": "FENGYUN 1C DEB",
        "group": "fengyun-1c-debris",
        "lat": 78.58661788296511,
        "lon": 39.0892223316825,
        "alt_km": 686.915194495331,
        "timestamp": "2025-12-21T22:41:41.737620+00:00",
        "meta_object_name": "FENGYUN 1C DEB",
        "meta_object_id": "1999-025ANL",
        "meta_epoch": "2025-12-21T12:30:40.197312",
        "meta_mean_motion": 14.59779109,
        "meta_eccentricity": 0.00075781,
        "meta_inclination": 99.2516,
        "meta_ra_of_asc_node": 92.4591,
        "meta_arg_of_pericenter": 179.1804,
        "meta_mean_anomaly": 195.5832,
        "meta_ephemeris_type": 0,
        "meta_classification_type": "U",
        "meta_norad_cat_id": 30629,
        "meta_element_set_no": 999,
        "meta_rev_at_epoch": 98018,
        "meta_bstar": 0.0021489388,
        "meta_mean_motion_dot": 0.00010224,
        "meta_mean_motion_ddot": 0,
        "tle_line1": "1 30629U 99025ANL 25355.52129858  .00010224  00000+0  21489-2 0  9999",
        "tle_line2": "2 30629  99.2516  92.4591 0007578 179.1804 195.5832 14.59779109980182"
      },
      "geometry": {
        "type": "Point",
        "coordinates": [
          39.0892223316825,
          78.58661788296511
        ]
      }
    }
  ]
}